{
    "links": {
        "self": "http://www.neowsapp.com/rest/v1/neo/3455136?api_key=iIulBulltgU6a56xZRHN4H3l9WmuAYTsLGpBGhQ2"
    },
    "id": "3455136",
    "neo_reference_id": "3455136",
    "name": "(2009 FT23)",
    "designation": "2009 FT23",
    "nasa_jpl_url": "http://ssd.jpl.nasa.gov/sbdb.cgi?sstr=3455136",
    "absolute_magnitude_h": 25.9,
    "estimated_diameter": {
        "kilometers": {
            "estimated_diameter_min": 0.0175612318,
            "estimated_diameter_max": 0.0392681082
        },
        "meters": {
            "estimated_diameter_min": 17.561231848,
            "estimated_diameter_max": 39.2681081809
        },
        "miles": {
            "estimated_diameter_min": 0.0109120402,
            "estimated_diameter_max": 0.0244000636
        },
        "feet": {
            "estimated_diameter_min": 57.6155918963,
            "estimated_diameter_max": 128.8323800441
        }
    },
    "is_potentially_hazardous_asteroid": false,
    "close_approach_data": [
        {
            "close_approach_date": "2009-03-25",
            "close_approach_date_full": "2009-Mar-25 09:55",
            "epoch_date_close_approach": 1237974900000,
            "relative_velocity": {
                "kilometers_per_second": "15.2849427732",
                "kilometers_per_hour": "55025.793983416",
                "miles_per_hour": "34190.8884893064"
            },
            "miss_distance": {
                "astronomical": "0.0119878041",
                "lunar": "4.6632557949",
                "kilometers": "1793349.959337267",
                "miles": "1114335.9922856046"
            },
            "orbiting_body": "Earth"
        },
        {
            "close_approach_date": "2013-03-07",
            "close_approach_date_full": "2013-Mar-07 08:59",
            "epoch_date_close_approach": 1362646740000,
            "relative_velocity": {
                "kilometers_per_second": "27.061184268",
                "kilometers_per_hour": "97420.2633647917",
                "miles_per_hour": "60533.1630890841"
            },
            "miss_distance": {
                "astronomical": "0.4072231569",
                "lunar": "158.4098080341",
                "kilometers": "60919716.886915803",
                "miles": "37853756.7715039614"
            },
            "orbiting_body": "Earth"
        },
        {
            "close_approach_date": "2014-10-16",
            "close_approach_date_full": "2014-Oct-16 08:40",
            "epoch_date_close_approach": 1413448800000,
            "relative_velocity": {
                "kilometers_per_second": "20.6552383006",
                "kilometers_per_hour": "74358.857882021",
                "miles_per_hour": "46203.7025545258"
            },
            "miss_distance": {
                "astronomical": "0.1980460423",
                "lunar": "77.0399104547",
                "kilometers": "29627266.090009901",
                "miles": "18409529.4871065938"
            },
            "orbiting_body": "Earth"
        }
    ],
    "orbital_data": {
        "orbit_id": "6",
        "orbit_determination_date": "2017-04-06 09:00:55",
        "first_observation_date": "2009-03-23",
        "last_observation_date": "2009-03-24",
        "data_arc_in_days": 1,
        "observations_used": 20,
        "orbit_uncertainty": "8",
        "minimum_orbit_intersection": ".0116367",
        "jupiter_tisserand_invariant": "5.181",
        "epoch_osculation": "2454914.5",
        "eccentricity": ".4455206951937012",
        "semi_major_axis": "1.199162842225881",
        "inclination": "11.562549219963",
        "ascending_node_longitude": "181.8685555408498",
        "orbital_period": "479.6403056821347",
        "perihelion_distance": ".6649109791069521",
        "perihelion_argument": "98.31168649202183",
        "aphelion_distance": "1.733414705344811",
        "perihelion_time": "2454975.303742732777",
        "mean_anomaly": "314.3629942594813",
        "mean_motion": ".7505624438463638",
        "equinox": "J2000",
        "orbit_class": {
            "orbit_class_type": "APO",
            "orbit_class_description": "Near-Earth asteroid orbits which cross the Earth’s orbit similar to that of 1862 Apollo",
            "orbit_class_range": "a (semi-major axis) > 1.0 AU; q (perihelion) < 1.017 AU"
        }
    },
    "is_sentry_object": false
}